{
  "type": "FeatureCollection",
  "features": [
    {
      "type": "Feature",
      "properties": {
        "norad_id": 46805,
        "name": "COSMOS 2547 (705K)",
        "group": "glo-ops",
        "lat": 15.491269034972198,
        "lon": -153.82350543795192,
        "alt_km": 19142.19800435819,
        "timestamp": "2025-12-15T11:38:37.414732+00:00",
        "meta_object_name": "COSMOS 2547 (705K)",
        "meta_object_id": "2020-075A",
        "meta_epoch": "2025-12-13T02:47:35.788416",
        "meta_mean_motion": 2.13100044,
        "meta_eccentricity": 0.00062786,
        "meta_inclination": 64.5959,
        "meta_ra_of_asc_node": 198.6839,
        "meta_arg_of_pericenter": 228.7725,
        "meta_mean_anomaly": 131.2461,
        "meta_ephemeris_type": 0,
        "meta_classification_type": "U",
        "meta_norad_cat_id": 46805,
        "meta_element_set_no": 999,
        "meta_rev_at_epoch": 3994,
        "meta_bstar": 0,
        "meta_mean_motion_dot": 7.7e-07,
        "meta_mean_motion_ddot": 0,
        "tle_line1": "1 46805U 20075A   25347.11638644  .00000077  00000+0  00000+0 0  9993",
        "tle_line2": "2 46805  64.5959 198.6839 0006278 228.7725 131.2461  2.13100044 39941"
      },
      "geometry": {
        "type": "Point",
        "coordinates": [
          -153.82350543795192,
          15.491269034972198
        ]
      }
    },
    {
      "type": "Feature",
      "properties": {
        "norad_id": 52984,
        "name": "COSMOS 2557 (706K)",
        "group": "glo-ops",
        "lat": -58.083534526432594,
        "lon": -168.76295635363823,
        "alt_km": 19104.891037024412,
        "timestamp": "2025-12-15T11:38:37.414743+00:00",
        "meta_object_name": "COSMOS 2557 (706K)",
        "meta_object_id": "2022-075A",
        "meta_epoch": "2025-12-07T04:21:00.419904",
        "meta_mean_motion": 2.13101754,
        "meta_eccentricity": 0.00137049,
        "meta_inclination": 64.4129,
        "meta_ra_of_asc_node": 321.247,
        "meta_arg_of_pericenter": 276.9,
        "meta_mean_anomaly": 82.939,
        "meta_ephemeris_type": 0,
        "meta_classification_type": "U",
        "meta_norad_cat_id": 52984,
        "meta_element_set_no": 999,
        "meta_rev_at_epoch": 2662,
        "meta_bstar": 0,
        "meta_mean_motion_dot": -5.2e-07,
        "meta_mean_motion_ddot": 0,
        "tle_line1": "1 52984U 22075A   25341.18125486 -.00000052  00000+0  00000+0 0  9990",
        "tle_line2": "2 52984  64.4129 321.2470 0013704 276.9000  82.9390  2.13101754 26625"
      },
      "geometry": {
        "type": "Point",
        "coordinates": [
          -168.76295635363823,
          -58.083534526432594
        ]
      }
    },
    {
      "type": "Feature",
      "properties": {
        "norad_id": 54031,
        "name": "COSMOS 2559 (707K)",
        "group": "glo-ops",
        "lat": 26.007991194597665,
        "lon": -25.430093383027142,
        "alt_km": 19155.713663676113,
        "timestamp": "2025-12-15T11:38:37.414754+00:00",
        "meta_object_name": "COSMOS 2559 (707K)",
        "meta_object_id": "2022-130A",
        "meta_epoch": "2025-12-14T00:56:40.379136",
        "meta_mean_motion": 2.13101379,
        "meta_eccentricity": 0.00117642,
        "meta_inclination": 64.3815,
        "meta_ra_of_asc_node": 321.0953,
        "meta_arg_of_pericenter": 192.3475,
        "meta_mean_anomaly": 167.6228,
        "meta_ephemeris_type": 0,
        "meta_classification_type": "U",
        "meta_norad_cat_id": 54031,
        "meta_element_set_no": 999,
        "meta_rev_at_epoch": 2474,
        "meta_bstar": 0,
        "meta_mean_motion_dot": -6.6e-07,
        "meta_mean_motion_ddot": 0,
        "tle_line1": "1 54031U 22130A   25348.03935624 -.00000066  00000+0  00000+0 0  9996",
        "tle_line2": "2 54031  64.3815 321.0953 0011764 192.3475 167.6228  2.13101379 24741"
      },
      "geometry": {
        "type": "Point",
        "coordinates": [
          -25.430093383027142,
          26.007991194597665
        ]
      }
    },
    {
      "type": "Feature",
      "properties": {
        "norad_id": 54377,
        "name": "COSMOS 2564 (761)",
        "group": "glo-ops",
        "lat": 28.091706966953996,
        "lon": 4.212312411101373,
        "alt_km": 19114.44290250483,
        "timestamp": "2025-12-15T11:38:37.414765+00:00",
        "meta_object_name": "COSMOS 2564 (761)",
        "meta_object_id": "2022-161A",
        "meta_epoch": "2025-12-14T19:43:47.966016",
        "meta_mean_motion": 2.13102112,
        "meta_eccentricity": 0.00085919,
        "meta_inclination": 64.7383,
        "meta_ra_of_asc_node": 198.8297,
        "meta_arg_of_pericenter": 204.5359,
        "meta_mean_anomaly": 155.5011,
        "meta_ephemeris_type": 0,
        "meta_classification_type": "U",
        "meta_norad_cat_id": 54377,
        "meta_element_set_no": 999,
        "meta_rev_at_epoch": 2370,
        "meta_bstar": 0,
        "meta_mean_motion_dot": 9.9e-07,
        "meta_mean_motion_ddot": 0,
        "tle_line1": "1 54377U 22161A   25348.82208294  .00000099  00000+0  00000+0 0  9991",
        "tle_line2": "2 54377  64.7383 198.8297 0008591 204.5359 155.5011  2.13102112 23707"
      },
      "geometry": {
        "type": "Point",
        "coordinates": [
          4.212312411101373,
          28.091706966953996
        ]
      }
    },
    {
      "type": "Feature",
      "properties": {
        "norad_id": 57517,
        "name": "COSMOS 2569 (703K)",
        "group": "glo-ops",
        "lat": 37.13364750225794,
        "lon": -121.63816611508803,
        "alt_km": 19148.441054092993,
        "timestamp": "2025-12-15T11:38:37.414775+00:00",
        "meta_object_name": "COSMOS 2569 (703K)",
        "meta_object_id": "2023-114A",
        "meta_epoch": "2025-12-13T21:31:33.711744",
        "meta_mean_motion": 2.13104015,
        "meta_eccentricity": 0.00105602,
        "meta_inclination": 65.1948,
        "meta_ra_of_asc_node": 78.8743,
        "meta_arg_of_pericenter": 286.9875,
        "meta_mean_anomaly": 72.9108,
        "meta_ephemeris_type": 0,
        "meta_classification_type": "U",
        "meta_norad_cat_id": 57517,
        "meta_element_set_no": 999,
        "meta_rev_at_epoch": 1831,
        "meta_bstar": 0,
        "meta_mean_motion_dot": -5.2e-07,
        "meta_mean_motion_ddot": 0,
        "tle_line1": "1 57517U 23114A   25347.89691796 -.00000052  00000+0  00000+0 0  9998",
        "tle_line2": "2 57517  65.1948  78.8743 0010560 286.9875  72.9108  2.13104015 18311"
      },
      "geometry": {
        "type": "Point",
        "coordinates": [
          -121.63816611508803,
          37.13364750225794
        ]
      }
    },
    {
      "type": "Feature",
      "properties": {
        "norad_id": 63130,
        "name": "COSMOS 2584 (704K)",
        "group": "glo-ops",
        "lat": -40.23291963601457,
        "lon": -77.70410449601884,
        "alt_km": 19115.39814643751,
        "timestamp": "2025-12-15T11:38:37.414786+00:00",
        "meta_object_name": "COSMOS 2584 (704K)",
        "meta_object_id": "2025-042A",
        "meta_epoch": "2025-12-14T06:03:59.682240",
        "meta_mean_motion": 2.13103048,
        "meta_eccentricity": 0.0007684,
        "meta_inclination": 64.9768,
        "meta_ra_of_asc_node": 79.0943,
        "meta_arg_of_pericenter": 217.8285,
        "meta_mean_anomaly": 142.1308,
        "meta_ephemeris_type": 0,
        "meta_classification_type": "U",
        "meta_norad_cat_id": 63130,
        "meta_element_set_no": 999,
        "meta_rev_at_epoch": 610,
        "meta_bstar": 0,
        "meta_mean_motion_dot": -5.4e-07,
        "meta_mean_motion_ddot": 0,
        "tle_line1": "1 63130U 25042A   25348.25277410 -.00000054  00000+0  00000+0 0  9994",
        "tle_line2": "2 63130  64.9768  79.0943 0007684 217.8285 142.1308  2.13103048  6103"
      },
      "geometry": {
        "type": "Point",
        "coordinates": [
          -77.70410449601884,
          -40.23291963601457
        ]
      }
    },
    {
      "type": "Feature",
      "properties": {
        "norad_id": 65590,
        "name": "COSMOS 2596 (708K)",
        "group": "glo-ops",
        "lat": -14.465992891262236,
        "lon": -45.62743909675958,
        "alt_km": 19103.81767066579,
        "timestamp": "2025-12-15T11:38:37.414798+00:00",
        "meta_object_name": "COSMOS 2596 (708K)",
        "meta_object_id": "2025-206B",
        "meta_epoch": "2025-12-14T19:11:43.005984",
        "meta_mean_motion": 2.13100538,
        "meta_eccentricity": 0.00140549,
        "meta_inclination": 64.743,
        "meta_ra_of_asc_node": 321.4024,
        "meta_arg_of_pericenter": 306.7253,
        "meta_mean_anomaly": 231.3639,
        "meta_ephemeris_type": 0,
        "meta_classification_type": "U",
        "meta_norad_cat_id": 65590,
        "meta_element_set_no": 999,
        "meta_rev_at_epoch": 198,
        "meta_bstar": 0,
        "meta_mean_motion_dot": -6.7e-07,
        "meta_mean_motion_ddot": 0,
        "tle_line1": "1 65590U 25206B   25348.79980331 -.00000067  00000+0  00000+0 0  9994",
        "tle_line2": "2 65590  64.7430 321.4024 0014054 306.7253 231.3639  2.13100538  1985"
      },
      "geometry": {
        "type": "Point",
        "coordinates": [
          -45.62743909675958,
          -14.465992891262236
        ]
      }
    }
  ]
}